$$SOE
2459580.500000000, A.D. 2022-Jan-01 00:00:00.0000, 6.408787613326688E+07, 2.854641055718469E+08, -1.182212755387211E+08,
2459587.500000000, A.D. 2022-Jan-08 00:00:00.0000, 5.269484858049682E+07, 2.888163908843648E+08, -1.163923410670961E+08,
2459594.500000000, A.D. 2022-Jan-15 00:00:00.0000, 4.122058181639209E+07, 2.917235882093492E+08, -1.143840362526007E+08,
2459601.500000000, A.D. 2022-Jan-22 00:00:00.0000, 2.968290179681375E+07, 2.941822069486885E+08, -1.121998449828786E+08,
2459608.500000000, A.D. 2022-Jan-29 00:00:00.0000, 1.809964115881534E+07, 2.961893339426982E+08, -1.098434565449834E+08,
2459615.500000000, A.D. 2022-Feb-05 00:00:00.0000, 6.488624759556667E+06, 2.977426299144140E+08, -1.073187612006405E+08,
2459622.500000000, A.D. 2022-Feb-12 00:00:00.0000, -5.132342279159527E+06, 2.988403251839846E+08, -1.046298462609821E+08,
2459629.500000000, A.D. 2022-Feb-19 00:00:00.0000, -1.674548540517282E+07, 2.994812170446959E+08, -1.017809923377375E+08,
2459636.500000000, A.D. 2022-Feb-26 00:00:00.0000, -2.833307172330404E+07, 2.996646680879389E+08, -9.877666969276904E+07,
2459643.500000000, A.D. 2022-Mar-05 00:00:00.0000, -3.987742124358180E+07, 2.993906048682468E+08, -9.562153473404658E+07,
2459650.500000000, A.D. 2022-Mar-12 00:00:00.0000, -5.136091813503446E+07, 2.986595168488787E+08, -9.232042666794311E+07,
2459657.500000000, A.D. 2022-Mar-19 00:00:00.0000, -6.276602197927236E+07, 2.974724556588106E+08, -8.887836429583094E+07,
2459664.500000000, A.D. 2022-Mar-26 00:00:00.0000, -7.407527906579620E+07, 2.958310346541584E+08, -8.530054294025327E+07,
2459671.500000000, A.D. 2022-Apr-02 00:00:00.0000, -8.527133372478662E+07, 2.937374287231290E+08, -8.159233149295343E+07,
2459678.500000000, A.D. 2022-Apr-09 00:00:00.0000, -9.633693948840468E+07, 2.911943743300577E+08, -7.775926958947626E+07,
2459685.500000000, A.D. 2022-Apr-16 00:00:00.0000, -1.072549697871479E+08, 2.882051704398039E+08, -7.380706486900815E+07,
2459692.500000000, A.D. 2022-Apr-23 00:00:00.0000, -1.180084295140489E+08, 2.847736813938828E+08, -6.974159009487739E+07,
2459699.500000000, A.D. 2022-Apr-30 00:00:00.0000, -1.285804693828793E+08, 2.809043394766169E+08, -6.556888012583672E+07,
2459706.500000000, A.D. 2022-May-07 00:00:00.0000, -1.389544000715930E+08, 2.766021451632041E+08, -6.129512914931686E+07,
2459713.500000000, A.D. 2022-May-14 00:00:00.0000, -1.491137048294984E+08, 2.718726680544973E+08, -5.692668802932817E+07,
2459720.500000000, A.D. 2022-May-21 00:00:00.0000, -1.590420526403379E+08, 2.667220492325660E+08, -5.247006149884700E+07,
2459727.500000000, A.D. 2022-May-28 00:00:00.0000, -1.687233124727156E+08, 2.611570040417417E+08, -4.793190520240732E+07,
2459734.500000000, A.D. 2022-Jun-04 00:00:00.0000, -1.781415683948956E+08, 2.551848249370664E+08, -4.331902260842536E+07,
2459741.500000000, A.D. 2022-Jun-11 00:00:00.0000, -1.872811354634245E+08, 2.488133843533388E+08, -3.863836177259523E+07,
2459748.500000000, A.D. 2022-Jun-18 00:00:00.0000, -1.961265763991086E+08, 2.420511375547450E+08, -3.389701192213297E+07,
2459755.500000000, A.D. 2022-Jun-25 00:00:00.0000, -2.046627190706625E+08, 2.349071253733758E+08, -2.910219983225294E+07,
2459762.500000000, A.D. 2022-Jul-02 00:00:00.0000, -2.128746746988876E+08, 2.273909767065207E+08, -2.426128597708280E+07,
2459769.500000000, A.D. 2022-Jul-09 00:00:00.0000, -2.207478564347482E+08, 2.195129108787627E+08, -1.938176043945807E+07,
2459776.500000000, A.D. 2022-Jul-16 00:00:00.0000, -2.282679984079279E+08, 2.112837408737725E+08, -1.447123844806370E+07,
2459783.500000000, A.D. 2022-Jul-23 00:00:00.0000, -2.354211774862504E+08, 2.027148774322980E+08, -9.537455295815125E+06,
2459790.500000000, A.D. 2022-Jul-30 00:00:00.0000, -2.421938376960940E+08, 1.938183305809578E+08, -4.588260881818734E+06,
2459797.500000000, A.D. 2022-Aug-06 00:00:00.0000, -2.485728137206044E+08, 1.846067091408355E+08, 3.683858898619413E+05,
2459804.500000000, A.D. 2022-Aug-13 00:00:00.0000, -2.545453543207041E+08, 1.750932208552800E+08, 5.324423198251911E+06,
2459811.500000000, A.D. 2022-Aug-20 00:00:00.0000, -2.600991472751440E+08, 1.652916725270633E+08, 1.027169302381356E+07,
2459818.500000000, A.D. 2022-Aug-27 00:00:00.0000, -2.652223457823453E+08, 1.552164693280459E+08, 1.520194847481189E+07,
2459825.500000000, A.D. 2022-Sep-03 00:00:00.0000, -2.699035960765961E+08, 1.448826130489103E+08, 2.010686173505858E+07,
2459832.500000000, A.D. 2022-Sep-10 00:00:00.0000, -2.741320661612376E+08, 1.343056991859450E+08, 2.497803267242225E+07,
2459839.500000000, A.D. 2022-Sep-17 00:00:00.0000, -2.778974756077794E+08, 1.235019127335838E+08, 2.980699815112765E+07,
2459846.500000000, A.D. 2022-Sep-24 00:00:00.0000, -2.811901263167380E+08, 1.124880224954812E+08, 3.458524208210675E+07,
2459853.500000000, A.D. 2022-Oct-01 00:00:00.0000, -2.840009339342305E+08, 1.012813737402300E+08, 3.930420622605000E+07,
2459860.500000000, A.D. 2022-Oct-08 00:00:00.0000, -2.863214594419781E+08, 8.989987955364920E+07, 4.395530178624457E+07,
2459867.500000000, A.D. 2022-Oct-15 00:00:00.0000, -2.881439417836756E+08, 7.836201190925084E+07, 4.852992200390406E+07,
2459874.500000000, A.D. 2022-Oct-22 00:00:00.0000, -2.894613336463212E+08, 6.668679060596715E+07, 5.301945585110912E+07,
2459881.500000000, A.D. 2022-Oct-29 00:00:00.0000, -2.902673378180209E+08, 5.489376733156170E+07, 5.741530241633896E+07,
2459888.500000000, A.D. 2022-Nov-05 00:00:00.0000, -2.905564418945659E+08, 4.300300744774424E+07, 6.170888604385501E+07,
2459895.500000000, A.D. 2022-Nov-12 00:00:00.0000, -2.903239531390158E+08, 3.103507060132103E+07, 6.589167252885061E+07,
2459902.500000000, A.D. 2022-Nov-19 00:00:00.0000, -2.895660340484065E+08, 1.901098904101579E+07, 6.995518636909999E+07,
2459909.500000000, A.D. 2022-Nov-26 00:00:00.0000, -2.882797381820436E+08, 6.952243087660361E+06, 7.389102902402422E+07,
2459916.500000000, A.D. 2022-Dec-03 00:00:00.0000, -2.864630458746917E+08, -5.119266402194373E+06, 7.769089816291595E+07,
2459923.500000000, A.D. 2022-Dec-10 00:00:00.0000, -2.841148995562099E+08, -1.718124870211057E+07, 8.134660788761938E+07,
2459930.500000000, A.D. 2022-Dec-17 00:00:00.0000, -2.812352383997127E+08, -2.921105716576743E+07, 8.485010990342820E+07,
2459937.500000000, A.D. 2022-Dec-24 00:00:00.0000, -2.778250319147359E+08, -4.118572664103934E+07, 8.819351559011321E+07,
2459944.500000000, A.D. 2022-Dec-31 00:00:00.0000, -2.738863118322606E+08, -5.308201433582249E+07, 9.136911890436348E+07,
2459951.500000000, A.D. 2023-Jan-07 00:00:00.0000, -2.694222018418405E+08, -6.487644324653560E+07, 9.436942012271512E+07,
2459958.500000000, A.D. 2023-Jan-14 00:00:00.0000, -2.644369468109484E+08, -7.654534770228745E+07, 9.718715057304686E+07,
2459965.500000000, A.D. 2023-Jan-21 00:00:00.0000, -2.589359417814462E+08, -8.806492422205144E+07, 9.981529806927104E+07,
2459972.500000000, A.D. 2023-Jan-28 00:00:00.0000, -2.529257567155895E+08, -9.941128787100601E+07, 1.022471326005548E+08,
2459979.500000000, A.D. 2023-Feb-04 00:00:00.0000, -2.464141568229117E+08, -1.105605310361375E+08, 1.044762324269672E+08,
2459986.500000000, A.D. 2023-Feb-11 00:00:00.0000, -2.394101198697420E+08, -1.214887847248737E+08, 1.064965105929288E+08,
2459993.500000000, A.D. 2023-Feb-18 00:00:00.0000, -2.319238501398699E+08, -1.321722830874282E+08, 1.083022416445461E+08,
2460000.500000000, A.D. 2023-Feb-25 00:00:00.0000, -2.239667883970397E+08, -1.425874311595431E+08, 1.098880883521562E+08,
2460007.500000000, A.D. 2023-Mar-04 00:00:00.0000, -2.155516173675231E+08, -1.527108755899847E+08, 1.112491282554750E+08,
2460014.500000000, A.D. 2023-Mar-11 00:00:00.0000, -2.066922623434623E+08, -1.625195780849994E+08, 1.123808798375320E+08,
2460021.500000000, A.D. 2023-Mar-18 00:00:00.0000, -1.974038865059229E+08, -1.719908913034805E+08, 1.132793281138167E+08,
2460028.500000000, A.D. 2023-Mar-25 00:00:00.0000, -1.877028804352535E+08, -1.811026368855177E+08, 1.139409493980291E+08,
2460035.500000000, A.D. 2023-Apr-01 00:00:00.0000, -1.776068450871570E+08, -1.898331848071178E+08, 1.143627350127363E+08,
2460042.500000000, A.D. 2023-Apr-08 00:00:00.0000, -1.671345685908846E+08, -1.981615323735808E+08, 1.145422138690308E+08,
2460049.500000000, A.D. 2023-Apr-15 00:00:00.0000, -1.563059989914126E+08, -2.060673834503292E+08, 1.144774738014841E+08,
2460056.500000000, A.D. 2023-Apr-22 00:00:00.0000, -1.451422109642162E+08, -2.135312304383734E+08, 1.141671810071436E+08,
2460063.500000000, A.D. 2023-Apr-29 00:00:00.0000, -1.336653636676573E+08, -2.205344361611070E+08, 1.136105972924577E+08,
2460070.500000000, A.D. 2023-May-06 00:00:00.0000, -1.218986514585184E+08, -2.270593132654944E+08, 1.128075952105040E+08,
2460077.500000000, A.D. 2023-May-13 00:00:00.0000, -1.098662484813004E+08, -2.330892013884185E+08, 1.117586708865728E+08,
2460084.500000000, A.D. 2023-May-20 00:00:00.0000, -9.759324700328764E+07, -2.386085419204105E+08, 1.104649542624992E+08,
2460091.500000000, A.D. 2023-May-27 00:00:00.0000, -8.510558948247951E+07, -2.436029497326116E+08, 1.089282165484324E+08,
2460098.500000000, A.D. 2023-Jun-03 00:00:00.0000, -7.242999456905539E+07, -2.480592811825860E+08, 1.071508747119010E+08,
2460105.500000000, A.D. 2023-Jun-10 00:00:00.0000, -5.959387735481896E+07, -2.519656977667881E+08, 1.051359928611625E+08,
2460112.500000000, A.D. 2023-Jun-17 00:00:00.0000, -4.662526419744917E+07, -2.553117248549663E+08, 1.028872803979178E+08,
2460119.500000000, A.D. 2023-Jun-24 00:00:00.0000, -3.355270228889846E+07, -2.580883048585341E+08, 1.004090868335298E+08,
2460126.500000000, A.D. 2023-Jul-01 00:00:00.0000, -2.040516427470156E+07, -2.602878434554541E+08, 9.770639326658174E+07,
2460133.500000000, A.D. 2023-Jul-08 00:00:00.0000, -7.211950224983290E+06, -2.619042475501652E+08, 9.478480072986928E+07,
2460140.500000000, A.D. 2023-Jul-15 00:00:00.0000, 5.997411082294557E+06, -2.629329573551013E+08, 9.165051531124553E+07,
2460147.500000000, A.D. 2023-Jul-22 00:00:00.0000, 1.919326436074574E+07, -2.633709732532641E+08, 8.831032969369723E+07,
$$EOE